[{"OBJECT_NAME":"STARLINK-32448","OBJECT_ID":"2024-229Q","EPOCH":"2026-03-09T13:10:22.411200","MEAN_MOTION":15.27594975,"ECCENTRICITY":0.0001366,"INCLINATION":43.0029,"RA_OF_ASC_NODE":271.1821,"ARG_OF_PERICENTER":264.9409,"MEAN_ANOMALY":95.1286,"EPHEMERIS_TYPE":0,"CLASSIFICATION_TYPE":"U","NORAD_CAT_ID":62206,"ELEMENT_SET_NO":999,"REV_AT_EPOCH":7054,"BSTAR":0.0012129,"MEAN_MOTION_DOT":0.00033279,"MEAN_MOTION_DDOT":0},{"OBJECT_NAME":"FLOCK 4G-2","OBJECT_ID":"2025-009BE","EPOCH":"2026-03-09T15:53:23.273952","MEAN_MOTION":15.2767526,"ECCENTRICITY":0.00031811,"INCLINATION":97.4044,"RA_OF_ASC_NODE":151.2221,"ARG_OF_PERICENTER":329.2677,"MEAN_ANOMALY":30.8376,"EPHEMERIS_TYPE":0,"CLASSIFICATION_TYPE":"U","NORAD_CAT_ID":62661,"ELEMENT_SET_NO":999,"REV_AT_EPOCH":12132,"BSTAR":0.00051068481,"MEAN_MOTION_DOT":0.00013752,"MEAN_MOTION_DDOT":0}]
